stk.v.4.3 

BEGIN Ephemeris 
 
NumberOfEphemerisPoints		146 
ScenarioEpoch	    3 Sep 2020 20:51:38.730540276 
InterpolationMethod		Lagrange 
InterpolationOrder		5 
CentralBody				Earth 
CoordinateSystem			TEME 
CoordinateSystemEpoch	  3 Sep 2020 20:51:38.730540276 
DistanceUnit			Kilometers 
 
EphemerisTimePosVel 
 
       0.00000000   -5530.13548154   -4545.57902228       0.03060380  0.305167718 -0.355748601  7.449076700
 END Ephemeris 
